{
    "links": {
        "self": "http://www.neowsapp.com/rest/v1/neo/3645726?api_key=iIulBulltgU6a56xZRHN4H3l9WmuAYTsLGpBGhQ2"
    },
    "id": "3645726",
    "neo_reference_id": "3645726",
    "name": "(2013 PD39)",
    "designation": "2013 PD39",
    "nasa_jpl_url": "http://ssd.jpl.nasa.gov/sbdb.cgi?sstr=3645726",
    "absolute_magnitude_h": 24.1,
    "estimated_diameter": {
        "kilometers": {
            "estimated_diameter_min": 0.040230458,
            "estimated_diameter_max": 0.0899580388
        },
        "meters": {
            "estimated_diameter_min": 40.2304579834,
            "estimated_diameter_max": 89.9580388169
        },
        "miles": {
            "estimated_diameter_min": 0.0249980399,
            "estimated_diameter_max": 0.0558973165
        },
        "feet": {
            "estimated_diameter_min": 131.9896957704,
            "estimated_diameter_max": 295.1379320721
        }
    },
    "is_potentially_hazardous_asteroid": false,
    "close_approach_data": [
        {
            "close_approach_date": "2013-09-03",
            "close_approach_date_full": "2013-Sep-03 09:38",
            "epoch_date_close_approach": 1378201080000,
            "relative_velocity": {
                "kilometers_per_second": "11.2670829996",
                "kilometers_per_hour": "40561.498798569",
                "miles_per_hour": "25203.3379618108"
            },
            "miss_distance": {
                "astronomical": "0.07612371",
                "lunar": "29.61212319",
                "kilometers": "11387944.8724977",
                "miles": "7076140.81876026"
            },
            "orbiting_body": "Earth"
        }
    ],
    "orbital_data": {
        "orbit_id": "7",
        "orbit_determination_date": "2017-04-06 08:45:07",
        "first_observation_date": "2013-08-12",
        "last_observation_date": "2013-09-02",
        "data_arc_in_days": 21,
        "observations_used": 16,
        "orbit_uncertainty": "8",
        "minimum_orbit_intersection": ".0252905",
        "jupiter_tisserand_invariant": "3.233",
        "epoch_osculation": "2456519.5",
        "eccentricity": ".5953716040376448",
        "semi_major_axis": "2.434763035280812",
        "inclination": "4.281382528476144",
        "ascending_node_longitude": "157.0208120842033",
        "orbital_period": "1387.661299255438",
        "perihelion_distance": ".9851742615141104",
        "perihelion_argument": "220.7707187171911",
        "aphelion_distance": "3.884351809047514",
        "perihelion_time": "2456566.274394599707",
        "mean_anomaly": "347.8653515343193",
        "mean_motion": ".2594293003582079",
        "equinox": "J2000",
        "orbit_class": {
            "orbit_class_type": "APO",
            "orbit_class_description": "Near-Earth asteroid orbits which cross the Earth’s orbit similar to that of 1862 Apollo",
            "orbit_class_range": "a (semi-major axis) > 1.0 AU; q (perihelion) < 1.017 AU"
        }
    },
    "is_sentry_object": false
}